PROMETHEUS 2-3          
1 41855U 16067H   23334.96913533  .00016974  00000+0  10505-2 0  9996
2 41855  98.0772 132.7043 0013377  26.8837 333.3081 15.09813620385612
DIDO-2                  
1 42000U 17008BE  23335.63497644  .00056894  00000+0  10206-2 0  9993
2 42000  97.1778  29.8455 0005471 131.0747 229.0979 15.49718464377778
AALTO-1                 
1 42775U 17036L   23335.59169759  .00045464  00000+0  97971-3 0  9997
2 42775  97.1335   1.5441 0006628 204.6787 155.4145 15.44435861358277
URSA MAIOR              
1 42776U 17036M   23335.62298445  .00064800  00000+0  12178-2 0  9997
2 42776  97.1334   3.5887 0006235 195.0572 165.0495 15.48346254358391
DIAMOND RED             
1 42783U 17036U   23334.81283450  .00079921  00000+0  11957-2 0  9999
2 42783  97.1267   7.0849 0004013 194.0128 166.1015 15.54713734358544
PEGASUS                 
1 42784U 17036V   23335.64147522  .00359728  00000+0  19702-2 0  9993
2 42784  97.1170  13.4447 0003449 155.9504 204.1926 15.78840820359053
DIAMOND GREEN           
1 42785U 17036W   23334.81067696  .00092012  00000+0  12195-2 0  9994
2 42785  97.1243   7.7047 0004186 186.6464 173.4738 15.57956527358576
DIAMOND BLUE            
1 42786U 17036X   23335.58371500  .00101252  00000+0  14303-2 0  9992
2 42786  97.1275   8.2023 0004577 182.0411 178.0826 15.56200793358674
CICERO 6                
1 42793U 17036AE  23335.64885846  .00065669  00000+0  11424-2 0  9992
2 42793  97.1257   7.3565 0004401 187.1438 172.9753 15.50559692358732
CORVUS BC2              
1 42846U 17042X   23335.49784797  .00006033  00000+0  54374-3 0  9996
2 42846  97.3737 166.9270 0009293  20.0582 340.1004 14.95879065347722
CORVUS BC1              
1 42847U 17042Y   23334.54134246  .00005802  00000+0  52177-3 0  9992
2 42847  97.3720 166.3985 0008930  20.5285 339.6294 14.95978388347591
MIRATA                  
1 43015U 17073C   23335.65138987  .00028875  00000+0  16332-2 0  9990
2 43015  97.6122 218.9104 0192259 213.6584 145.2309 14.98622442326517
MAKERSAT 0              
1 43016U 17073D   23335.65246400  .00017208  00000+0  10834-2 0  9990
2 43016  97.6058 215.7009 0211908 227.4753 130.8402 14.92467419326248
CORVUS BC3              
1 43118U 18004H   23335.76960642  .00066007  00000+0  11700-2 0  9995
2 43118  97.3104  50.9252 0004570 248.6772 111.3992 15.50025327327882
GOMX-4B                 
1 43196U 18015E   23334.96292028  .00034319  00000+0  73796-3 0  9995
2 43196  97.5939 131.9011 0011328 329.0224  31.0355 15.44517417324612
GOMX-4A                 
1 43197U 18015F   23335.77838846  .00050946  00000+0  93035-3 0  9992
2 43197  97.5918 135.8513 0010329 317.7037  42.3415 15.49194393324954
CUBEBEL-1 (BSUSAT-1)    
1 43666U 18083E   23335.82350421  .00142599  00000+0  18971-2 0  9993
2 43666  97.3568  10.0850 0004641 210.5743 149.5243 15.57674235283091
CICERO 10               
1 43690U 18088A   23335.43540420  .00055660  00000+0  11283-2 0  9993
2 43690  85.0253 318.7122 0006676 354.1598   5.9578 15.46148749281229
PROXIMA I               
1 43694U 18088E   23335.74542011  .00080389  00000+0  13214-2 0  9991
2 43694  85.0171 313.2980 0004555 283.8109  76.2642 15.52080693281632
PROXIMA II              
1 43696U 18088G   23334.68259276  .00067981  00000+0  11366-2 0  9992
2 43696  85.0174 314.1256 0004944 291.1501  68.9229 15.51641885281468
SIRION PATHFINDER-2     
1 43759U 18099B   23335.15875001  .00006792  00000+0  54618-3 0  9998
2 43759  97.5474  32.0262 0012154 254.8535 105.1345 15.00253582272647
CORVUS BC4              
1 43767U 18099K   23335.11387553  .00007314  00000+0  59545-3 0  9998
2 43767  97.5481  29.6871 0007331 290.9774  69.0665 14.99788426272537
MOVE-II                 
1 43780U 18099Y   23335.17413656  .00019579  00000+0  12641-2 0  9994
2 43780  97.5505  35.9498 0006854 310.5577  49.5054 15.08273285272867
SPACEBEE-7              
1 43816U 18099BL  23334.40969602  .00015346  00000+0  10566-2 0  9998
2 43816  97.5772  36.1607 0010118 251.1275 108.8855 15.05922210272292
SPACEBEE-5              
1 43817U 18099BM  23335.73257752  .00181035  00000+0  44503-2 0  9999
2 43817  97.5698  50.1134 0003184 232.9094 127.1861 15.39920955273240
SPACEBEE-6              
1 43818U 18099BN  23335.72134178  .00030929  00000+0  18014-2 0  9998
2 43818  97.5702  40.4651 0009498 258.7896 101.2267 15.11913277272828
SHIELDS 1               
1 43850U 18104B   23334.72677540  .00015768  00000+0  50648-3 0  9999
2 43850  85.0269  57.8292 0014148  97.8891 262.3963 15.32062480275573
STF-1                   
1 43852U 18104D   23335.71073971  .00168498  00000+0  17185-2 0  9996
2 43852  85.0151  51.1912 0005689  87.1839 273.0077 15.64538803276360
ZACUBE-2                
1 43907U 18111AH  23335.79478576  .00086660  00000+0  12690-2 0  9999
2 43907  97.1035 212.5479 0010157 336.7415  23.3379 15.55227733275059
LUME 1                  
1 43908U 18111AJ  23335.60874951  .00183888  00000+0  15681-2 0  9990
2 43908  97.1048 218.1086 0005096 332.3673  27.7318 15.68953956275401
MOVE-IIB                
1 44398U 19038N   23335.81948569  .02663086  12026-1  30248-2 0  9997
2 44398  97.6528 331.1261 0006114 114.8280 245.3640 16.12250899244759
SONATE                  
1 44400U 19038Q   23334.94704368  .00018277  00000+0  70996-3 0  9997
2 44400  97.7018 316.7097 0021200  88.7825 271.5841 15.25917546243622
LUCKY-7                 
1 44406U 19038W   23335.48591153  .00030560  00000+0  10236-2 0  9998
2 44406  97.6967 319.3938 0019403  79.3489 280.9935 15.30705113243851
BEESAT 9                
1 44412U 19038AC  23334.49315866  .00063845  00000+0  14585-2 0  9993
2 44412  97.6857 322.0518 0015563  74.0986 286.1975 15.42507221243673
JAISAT-1                
1 44419U 19038F   23334.93827977  .00059876  00000+0  13647-2 0  9997
2 44419  97.6839 323.6431 0014986  70.5546 289.7319 15.42603381244128
DUCHIFAT-3              
1 44854U 19089C   23335.80289295  .00017389  00000+0  10495-2 0  9999
2 44854  36.9580 166.9791 0008614 270.7477  89.2281 15.10028598218145
M2 PATHFINDER           
1 45727U 20037E   23334.49386846  .00006477  00000+0  59059-3 0  9994
2 45727  97.7629 147.3976 0013030  72.5075 287.7568 14.95386274186082
NETSAT-4                
1 46504U 20068U   23335.82467428  .00014359  00000+0  87245-3 0  9992
2 46504  97.7828 283.6945 0009648 330.2652  29.8027 15.10552974174185
NETSAT-3                
1 46505U 20068V   23335.42065958  .00012826  00000+0  78722-3 0  9998
2 46505  97.7802 282.9979 0009134 341.5786  18.5111 15.10216691174126
NETSAT-1                
1 46506U 20068W   23334.85387279  .00009411  00000+0  59133-3 0  9999
2 46506  97.7830 282.2056 0008090 356.7954   3.3221 15.09453713174021
NETSAT-2                
1 46507U 20068X   23335.36693982  .00012046  00000+0  73505-3 0  9995
2 46507  97.7815 282.9268 0007600   3.1317 356.9958 15.10456178174067
WILDTRACKCUBE-SIMBA     
1 47941U 21022K   23335.80398028  .00017910  00000+0  93757-3 0  9997
2 47941  97.4785 229.9952 0019254 113.0841 247.2423 15.15719396148367
BEESAT-6                
1 47957U 21022AB  23334.50232348  .00056968  00000+0  19690-2 0  9991
2 47957  97.4745 232.8643 0016009 100.4204 259.8841 15.29592989148251
SMOG-1                  
1 47964U 21022AJ  23335.28154363  .00053872  00000+0  17676-2 0  9998
2 47964  97.4816 236.2626 0014825  85.2590 275.0344 15.31311808147540
BCCSAT-1                
1 48041U 21022AK  23334.71319676  .00040610  00000+0  15153-2 0  9996
2 48041  97.4809 233.8610 0013109  89.6726 270.6015 15.27208358147319
BEESAT-5                
1 48083U 21022AM  23334.91649116  .00059656  00000+0  19035-2 0  9992
2 48083  97.4600 233.7354 0015723  95.9619 264.3415 15.32167194147506
BEESAT-7                
1 48084U 21022AN  23334.68832468  .00052167  00000+0  17663-2 0  9996
2 48084  97.4727 233.3296 0015763  98.8572 261.4454 15.30290720147020
BEESAT-8                
1 48085U 21022AP  23334.65533270  .00026404  00000+0  11805-2 0  9990
2 48085  97.4847 231.4891 0017736 108.3462 251.9704 15.21149941147447
LEDSAT                  
1 49069U 21073D   23335.72056438  .00019075  00000+0  93169-3 0  9994
2 49069  97.4645  44.0000 0020674 258.5419 101.3493 15.18112094126288
